CCSDS_OMM_VERS = 2.0
CREATION_DATE  = 
ORIGINATOR     = 

OBJECT_NAME    = SL-14 R/B
OBJECT_ID      = 1986-046B
CENTER_NAME    = EARTH
REF_FRAME      = TEME
TIME_SYSTEM    = UTC
MEAN_ELEMENT_THEORY = SGP/SGP4

EPOCH          = 2026-03-17T11:39:31.824000
MEAN_MOTION    = 14.85598106
ECCENTRICITY   = .00225487
INCLINATION    = 82.4785
RA_OF_ASC_NODE = 72.8128
ARG_OF_PERICENTER = 198.6182
MEAN_ANOMALY   = 161.4212

EPHEMERIS_TYPE = 0
CLASSIFICATION_TYPE = U
NORAD_CAT_ID   = 16792
ELEMENT_SET_NO = 999
REV_AT_EPOCH   = 12756
BSTAR          = .48896555E-4
MEAN_MOTION_DOT = .449E-5
MEAN_MOTION_DDOT = 0

CCSDS_OMM_VERS = 2.0
CREATION_DATE  = 
ORIGINATOR     = 

OBJECT_NAME    = SL-14 R/B
OBJECT_ID      = 1986-055B
CENTER_NAME    = EARTH
REF_FRAME      = TEME
TIME_SYSTEM    = UTC
MEAN_ELEMENT_THEORY = SGP/SGP4

EPOCH          = 2026-03-17T13:34:24.995712
MEAN_MOTION    = 14.85649766
ECCENTRICITY   = .00176254
INCLINATION    = 82.5186
RA_OF_ASC_NODE = 119.2706
ARG_OF_PERICENTER = 309.1840
MEAN_ANOMALY   = 203.7466

EPHEMERIS_TYPE = 0
CLASSIFICATION_TYPE = U
NORAD_CAT_ID   = 16882
ELEMENT_SET_NO = 999
REV_AT_EPOCH   = 12053
BSTAR          = .45791169E-4
MEAN_MOTION_DOT = .422E-5
MEAN_MOTION_DDOT = 0

CCSDS_OMM_VERS = 2.0
CREATION_DATE  = 
ORIGINATOR     = 

OBJECT_NAME    = AJISAI (EGS)
OBJECT_ID      = 1986-061A
CENTER_NAME    = EARTH
REF_FRAME      = TEME
TIME_SYSTEM    = UTC
MEAN_ELEMENT_THEORY = SGP/SGP4

EPOCH          = 2026-03-17T21:27:20.619360
MEAN_MOTION    = 12.44515703
ECCENTRICITY   = .0011298
INCLINATION    = 50.0089
RA_OF_ASC_NODE = 68.1182
ARG_OF_PERICENTER = 308.1752
MEAN_ANOMALY   = 63.7277

EPHEMERIS_TYPE = 0
CLASSIFICATION_TYPE = U
NORAD_CAT_ID   = 16908
ELEMENT_SET_NO = 999
REV_AT_EPOCH   = 46902
BSTAR          = .21081E-4
MEAN_MOTION_DOT = -.94E-6
MEAN_MOTION_DDOT = 0

CCSDS_OMM_VERS = 2.0
CREATION_DATE  = 
ORIGINATOR     = 

OBJECT_NAME    = SL-14 R/B
OBJECT_ID      = 1987-024B
CENTER_NAME    = EARTH
REF_FRAME      = TEME
TIME_SYSTEM    = UTC
MEAN_ELEMENT_THEORY = SGP/SGP4

EPOCH          = 2026-03-17T09:09:37.221120
MEAN_MOTION    = 14.86139520
ECCENTRICITY   = .00169558
INCLINATION    = 82.5244
RA_OF_ASC_NODE = 85.5317
ARG_OF_PERICENTER = 232.2986
MEAN_ANOMALY   = 127.6694

EPHEMERIS_TYPE = 0
CLASSIFICATION_TYPE = U
NORAD_CAT_ID   = 17567
ELEMENT_SET_NO = 999
REV_AT_EPOCH   = 8927
BSTAR          = .48261702E-4
MEAN_MOTION_DOT = .448E-5
MEAN_MOTION_DDOT = 0

CCSDS_OMM_VERS = 2.0
CREATION_DATE  = 
ORIGINATOR     = 

OBJECT_NAME    = COSMOS 1833
OBJECT_ID      = 1987-027A
CENTER_NAME    = EARTH
REF_FRAME      = TEME
TIME_SYSTEM    = UTC
MEAN_ELEMENT_THEORY = SGP/SGP4

EPOCH          = 2026-03-17T15:31:53.193216
MEAN_MOTION    = 14.13052393
ECCENTRICITY   = .00238564
INCLINATION    = 70.9203
RA_OF_ASC_NODE = 309.2947
ARG_OF_PERICENTER = 203.1456
MEAN_ANOMALY   = 156.8592

EPHEMERIS_TYPE = 0
CLASSIFICATION_TYPE = U
NORAD_CAT_ID   = 17589
ELEMENT_SET_NO = 999
REV_AT_EPOCH   = 1144
BSTAR          = -.89092356E-4
MEAN_MOTION_DOT = -.215E-5
MEAN_MOTION_DDOT = 0

CCSDS_OMM_VERS = 2.0
CREATION_DATE  = 
ORIGINATOR     = 

OBJECT_NAME    = SL-16 R/B
OBJECT_ID      = 1987-027B
CENTER_NAME    = EARTH
REF_FRAME      = TEME
TIME_SYSTEM    = UTC
MEAN_ELEMENT_THEORY = SGP/SGP4

EPOCH          = 2026-03-17T05:52:32.624256
MEAN_MOTION    = 14.17166780
ECCENTRICITY   = .00031333
INCLINATION    = 70.9993
RA_OF_ASC_NODE = 260.5727
ARG_OF_PERICENTER = 125.6346
MEAN_ANOMALY   = 234.5070

EPHEMERIS_TYPE = 0
CLASSIFICATION_TYPE = U
NORAD_CAT_ID   = 17590
ELEMENT_SET_NO = 999
REV_AT_EPOCH   = 1641
BSTAR          = .15345677E-4
MEAN_MOTION_DOT = -.17E-6
MEAN_MOTION_DDOT = 0

CCSDS_OMM_VERS = 2.0
CREATION_DATE  = 
ORIGINATOR     = 

OBJECT_NAME    = SL-14 R/B
OBJECT_ID      = 1987-038B
CENTER_NAME    = EARTH
REF_FRAME      = TEME
TIME_SYSTEM    = UTC
MEAN_ELEMENT_THEORY = SGP/SGP4

EPOCH          = 2026-03-17T20:27:06.980832
MEAN_MOTION    = 14.85376403
ECCENTRICITY   = .0020322
INCLINATION    = 82.4988
RA_OF_ASC_NODE = 289.1170
ARG_OF_PERICENTER = 134.5280
MEAN_ANOMALY   = 225.7600

EPHEMERIS_TYPE = 0
CLASSIFICATION_TYPE = U
NORAD_CAT_ID   = 17912
ELEMENT_SET_NO = 999
REV_AT_EPOCH   = 8044
BSTAR          = .44236E-4
MEAN_MOTION_DOT = .406E-5
MEAN_MOTION_DDOT = 0

CCSDS_OMM_VERS = 2.0
CREATION_DATE  = 
ORIGINATOR     = 

OBJECT_NAME    = COSMOS 1844
OBJECT_ID      = 1987-041A
CENTER_NAME    = EARTH
REF_FRAME      = TEME
TIME_SYSTEM    = UTC
MEAN_ELEMENT_THEORY = SGP/SGP4

EPOCH          = 2026-03-17T21:15:51.228576
MEAN_MOTION    = 14.14551103
ECCENTRICITY   = .0030435
INCLINATION    = 70.9007
RA_OF_ASC_NODE = 16.8875
ARG_OF_PERICENTER = 5.8863
MEAN_ANOMALY   = 354.2610

EPHEMERIS_TYPE = 0
CLASSIFICATION_TYPE = U
NORAD_CAT_ID   = 17973
ELEMENT_SET_NO = 999
REV_AT_EPOCH   = 474
BSTAR          = .89805E-5
MEAN_MOTION_DOT = -.31E-6
MEAN_MOTION_DDOT = 0

CCSDS_OMM_VERS = 2.0
CREATION_DATE  = 
ORIGINATOR     = 

OBJECT_NAME    = SL-14 R/B
OBJECT_ID      = 1987-055B
CENTER_NAME    = EARTH
REF_FRAME      = TEME
TIME_SYSTEM    = UTC
MEAN_ELEMENT_THEORY = SGP/SGP4

EPOCH          = 2026-03-17T19:51:46.162368
MEAN_MOTION    = 14.85638339
ECCENTRICITY   = .00204
INCLINATION    = 82.5027
RA_OF_ASC_NODE = 341.3636
ARG_OF_PERICENTER = 351.2775
MEAN_ANOMALY   = 8.8083

EPHEMERIS_TYPE = 0
CLASSIFICATION_TYPE = U
NORAD_CAT_ID   = 18153
ELEMENT_SET_NO = 999
REV_AT_EPOCH   = 7114
BSTAR          = .47142E-4
MEAN_MOTION_DOT = .434E-5
MEAN_MOTION_DDOT = 0

CCSDS_OMM_VERS = 2.0
CREATION_DATE  = 
ORIGINATOR     = 

OBJECT_NAME    = COSMOS 1867
OBJECT_ID      = 1987-060A
CENTER_NAME    = EARTH
REF_FRAME      = TEME
TIME_SYSTEM    = UTC
MEAN_ELEMENT_THEORY = SGP/SGP4

EPOCH          = 2026-03-17T19:47:30.064992
MEAN_MOTION    = 14.31504251
ECCENTRICITY   = .0014602
INCLINATION    = 65.0098
RA_OF_ASC_NODE = 283.9231
ARG_OF_PERICENTER = 279.1122
MEAN_ANOMALY   = 80.8310

EPHEMERIS_TYPE = 0
CLASSIFICATION_TYPE = U
NORAD_CAT_ID   = 18187
ELEMENT_SET_NO = 999
REV_AT_EPOCH   = 2110
BSTAR          = .23346E-4
MEAN_MOTION_DOT = -.38E-6
MEAN_MOTION_DDOT = 0

CCSDS_OMM_VERS = 2.0
CREATION_DATE  = 
ORIGINATOR     = 

OBJECT_NAME    = SL-14 R/B
OBJECT_ID      = 1988-001B
CENTER_NAME    = EARTH
REF_FRAME      = TEME
TIME_SYSTEM    = UTC
MEAN_ELEMENT_THEORY = SGP/SGP4

EPOCH          = 2026-03-17T19:45:51.555168
MEAN_MOTION    = 14.85537372
ECCENTRICITY   = .0017379
INCLINATION    = 82.5160
RA_OF_ASC_NODE = 187.7120
ARG_OF_PERICENTER = 207.2409
MEAN_ANOMALY   = 152.7897

EPHEMERIS_TYPE = 0
CLASSIFICATION_TYPE = U
NORAD_CAT_ID   = 18749
ELEMENT_SET_NO = 999
REV_AT_EPOCH   = 4323
BSTAR          = .51924E-4
MEAN_MOTION_DOT = .474E-5
MEAN_MOTION_DDOT = 0

CCSDS_OMM_VERS = 2.0
CREATION_DATE  = 
ORIGINATOR     = 

OBJECT_NAME    = COSMOS 1933
OBJECT_ID      = 1988-020A
CENTER_NAME    = EARTH
REF_FRAME      = TEME
TIME_SYSTEM    = UTC
MEAN_ELEMENT_THEORY = SGP/SGP4

EPOCH          = 2026-03-17T19:58:04.063872
MEAN_MOTION    = 15.18060195
ECCENTRICITY   = .0004513
INCLINATION    = 82.5102
RA_OF_ASC_NODE = 242.8537
ARG_OF_PERICENTER = 155.4562
MEAN_ANOMALY   = 204.6887

EPHEMERIS_TYPE = 0
CLASSIFICATION_TYPE = U
NORAD_CAT_ID   = 18958
ELEMENT_SET_NO = 999
REV_AT_EPOCH   = 5146
BSTAR          = .15055E-3
MEAN_MOTION_DOT = .3096E-4
MEAN_MOTION_DDOT = 0

